CTC1_L_00486015-05
1 21029U 23398U   26070.40837963  .00000000  00000+0  00000-0 0  9993
2 21029  55.0000 168.0000 0000000   0.0000 162.4615 13.76872657    19
CTC1_L_00486015-06
1 21030U 23005YE  26070.40837963  .00000000  00000+0  00000-0 0  9990
2 21030  55.0000 168.0000 0000000   0.0000 190.1538 13.76872657    13
CTC1_L_00486015-07
1 21031U 23415MA  26070.40837963  .00000000  00000+0  00000-0 0  9996
2 21031  55.0000 168.0000 0000000   0.0000 217.8462 13.76872657    17
CTC1_L_00486015-08
1 21032U 24140FQ  26070.40837963  .00000000  00000+0  00000-0 0  9993
2 21032  55.0000 168.0000 0000000   0.0000 245.5385 13.76872657    10
CTC1_L_00486015-09
1 21033U 26922WX  26070.40837963  .00000000  00000+0  00000-0 0  9994
2 21033  55.0000 168.0000 0000000   0.0000 273.2308 13.76872657    14
CTC1_L_00486015-10
1 21034U 26325ME  26070.40837963  .00000000  00000+0  00000-0 0  9992
2 21034  55.0000 168.0000 0000000   0.0000 300.9231 13.76872657    18
CTC1_L_00486015-11
1 21035U 23659CJ  26070.40837963  .00000000  00000+0  00000-0 0  9990
2 21035  55.0000 168.0000 0000000   0.0000 328.6154 13.76872657    10
CTC1_L_00486015-12
1 21036U 25331OP  26070.40837963  .00000000  00000+0  00000-0 0  9990
2 21036  55.0000 168.0000 0000000   0.0000 356.3077 13.76872657    13
CTC1_L_00486015-13
1 21037U 26175XL  26070.40837963  .00000000  00000+0  00000-0 0  9998
2 21037  55.0000 168.0000 0000000   0.0000  24.0000 13.76872657    19
CTC1_L_00486016-01
1 21038U 24006KI  26070.40837963  .00000000  00000+0  00000-0 0  9990
2 21038  55.0000 180.0000 0000000   0.0000  55.3846 13.76872657    19
CTC1_L_00486016-02
1 21039U 22414CK  26070.40837963  .00000000  00000+0  00000-0 0  9992
2 21039  55.0000 180.0000 0000000   0.0000  83.0769 13.76872657    12
CTC1_L_00486016-03
1 21040U 22902VZ  26070.40837963  .00000000  00000+0  00000-0 0  9996
2 21040  55.0000 180.0000 0000000   0.0000 110.7692 13.76872657    17
CTC1_L_00486016-04
1 21041U 25600JV  26070.40837963  .00000000  00000+0  00000-0 0  9995
2 21041  55.0000 180.0000 0000000   0.0000 138.4615 13.76872657    10
CTC1_L_00486016-05
1 21042U 26988HB  26070.40837963  .00000000  00000+0  00000-0 0  9996
2 21042  55.0000 180.0000 0000000   0.0000 166.1538 13.76872657    13
CTC1_L_00486016-06
1 21043U 24306XC  26070.40837963  .00000000  00000+0  00000-0 0  9999
2 21043  55.0000 180.0000 0000000   0.0000 193.8462 13.76872657    17
CTC1_L_00486016-07
1 21044U 26260NW  26070.40837963  .00000000  00000+0  00000-0 0  9991
2 21044  55.0000 180.0000 0000000   0.0000 221.5385 13.76872657    11
CTC1_L_00486016-08
1 21045U 23213ID  26070.40837963  .00000000  00000+0  00000-0 0  9997
2 21045  55.0000 180.0000 0000000   0.0000 249.2308 13.76872657    14
CTC1_L_00486016-09
1 21046U 25183UF  26070.40837963  .00000000  00000+0  00000-0 0  9996
2 21046  55.0000 180.0000 0000000   0.0000 276.9231 13.76872657    17
CTC1_L_00486016-10
1 21047U 22603RX  26070.40837963  .00000000  00000+0  00000-0 0  9991
2 21047  55.0000 180.0000 0000000   0.0000 304.6154 13.76872657    11
CTC1_L_00486016-11
1 21048U 23523ZF  26070.40837963  .00000000  00000+0  00000-0 0  9994
2 21048  55.0000 180.0000 0000000   0.0000 332.3077 13.76872657    14
CTC1_L_00486016-12
1 21049U 25451VQ  26070.40837963  .00000000  00000+0  00000-0 0  9997
2 21049  55.0000 180.0000 0000000   0.0000   0.0000 13.76872657    10
CTC1_L_00486016-13
1 21050U 22064VC  26070.40837963  .00000000  00000+0  00000-0 0  9996
2 21050  55.0000 180.0000 0000000   0.0000  27.6923 13.76872657    11
CTC1_L_00486017-01
1 21051U 25780HP  26070.40837963  .00000000  00000+0  00000-0 0  9995
2 21051  55.0000 192.0000 0000000   0.0000  59.0769 13.76872657    12
CTC1_L_00486017-02
1 21052U 25410IO  26070.40837963  .00000000  00000+0  00000-0 0  9996
2 21052  55.0000 192.0000 0000000   0.0000  86.7692 13.76872657    15
CTC1_L_00486017-03
1 21053U 24460E   26070.40837963  .00000000  00000+0  00000-0 0  9991
2 21053  55.0000 192.0000 0000000   0.0000 114.4615 13.76872657    10
CTC1_L_00486017-04
1 21054U 25114ZG  26070.40837963  .00000000  00000+0  00000-0 0  9999
2 21054  55.0000 192.0000 0000000   0.0000 142.1538 13.76872657    13
CTC1_L_00486017-05
1 21055U 26141OS  26070.40837963  .00000000  00000+0  00000-0 0  9991
2 21055  55.0000 192.0000 0000000   0.0000 169.8462 13.76872657    16
CTC1_L_00486017-06
1 21056U 24584CW  26070.40837963  .00000000  00000+0  00000-0 0  9991
2 21056  55.0000 192.0000 0000000   0.0000 197.5385 13.76872657    19
CTC1_L_00486017-07
1 21057U 26174VI  26070.40837963  .00000000  00000+0  00000-0 0  9999
2 21057  55.0000 192.0000 0000000   0.0000 225.2308 13.76872657    14
CTC1_L_00486017-08
1 21058U 26609IN  26070.40837963  .00000000  00000+0  00000-0 0  9993
2 21058  55.0000 192.0000 0000000   0.0000 252.9231 13.76872657    17
CTC1_L_00486017-09
1 21059U 23444BD  26070.40837963  .00000000  00000+0  00000-0 0  9998
2 21059  55.0000 192.0000 0000000   0.0000 280.6154 13.76872657    10
CTC1_L_00486017-10
1 21060U 24892GC  26070.40837963  .00000000  00000+0  00000-0 0  9998
2 21060  55.0000 192.0000 0000000   0.0000 308.3077 13.76872657    14
CTC1_L_00486017-11
1 21061U 22659DZ  26070.40837963  .00000000  00000+0  00000-0 0  9998
2 21061  55.0000 192.0000 0000000   0.0000 336.0000 13.76872657    19
CTC1_L_00486017-12
1 21062U 25946PG  26070.40837963  .00000000  00000+0  00000-0 0  9991
2 21062  55.0000 192.0000 0000000   0.0000   3.6923 13.76872657    11
CTC1_L_00486017-13
1 21063U 23091TA  26070.40837963  .00000000  00000+0  00000-0 0  9991
2 21063  55.0000 192.0000 0000000   0.0000  31.3846 13.76872657    14
CTC1_L_00486018-01
1 21064U 24666HJ  26070.40837963  .00000000  00000+0  00000-0 0  9991
2 21064  55.0000 204.0000 0000000   0.0000  62.7692 13.76872657    16
CTC1_L_00486018-02
1 21065U 22783PU  26070.40837963  .00000000  00000+0  00000-0 0  9990
2 21065  55.0000 204.0000 0000000   0.0000  90.4615 13.76872657    10
CTC1_L_00486018-03
1 21066U 24820SC  26070.40837963  .00000000  00000+0  00000-0 0  9995
2 21066  55.0000 204.0000 0000000   0.0000 118.1538 13.76872657    13
CTC1_L_00486018-04
1 21067U 26960XZ  26070.40837963  .00000000  00000+0  00000-0 0  9993
2 21067  55.0000 204.0000 0000000   0.0000 145.8462 13.76872657    17
CTC1_L_00486018-05
1 21068U 25899EX  26070.40837963  .00000000  00000+0  00000-0 0  9994
2 21068  55.0000 204.0000 0000000   0.0000 173.5385 13.76872657    10
CTC1_L_00486018-06
1 21069U 22047CQ  26070.40837963  .00000000  00000+0  00000-0 0  9997
2 21069  55.0000 204.0000 0000000   0.0000 201.2308 13.76872657    15
CTC1_L_00486018-07
1 21070U 25851OO  26070.40837963  .00000000  00000+0  00000-0 0  9995
2 21070  55.0000 204.0000 0000000   0.0000 228.9231 13.76872657    18
CTC1_L_00486018-08
1 21071U 25507TN  26070.40837963  .00000000  00000+0  00000-0 0  9994
2 21071  55.0000 204.0000 0000000   0.0000 256.6154 13.76872657    11
CTC1_L_00486018-09
1 21072U 26795PK  26070.40837963  .00000000  00000+0  00000-0 0  9995
2 21072  55.0000 204.0000 0000000   0.0000 284.3077 13.76872657    14
CTC1_L_00486018-10
1 21073U 22261HF  26070.40837963  .00000000  00000+0  00000-0 0  9990
2 21073  55.0000 204.0000 0000000   0.0000 312.0000 13.76872657    10
CTC1_L_00486018-11
1 21074U 26894JH  26070.40837963  .00000000  00000+0  00000-0 0  9997
2 21074  55.0000 204.0000 0000000   0.0000 339.6923 13.76872657    10
CTC1_L_00486018-12
1 21075U 25938GS  26070.40837963  .00000000  00000+0  00000-0 0  9996
2 21075  55.0000 204.0000 0000000   0.0000   7.3846 13.76872657    14
CTC1_L_00486018-13
1 21076U 25498GQ  26070.40837963  .00000000  00000+0  00000-0 0  9998
2 21076  55.0000 204.0000 0000000   0.0000  35.0769 13.76872657    17
CTC1_L_00486019-01
1 21077U 25481MS  26070.40837963  .00000000  00000+0  00000-0 0  9991
2 21077  55.0000 216.0000 0000000   0.0000  66.4615 13.76872657    19
CTC1_L_00486019-02
1 21078U 22506DO  26070.40837963  .00000000  00000+0  00000-0 0  9997
2 21078  55.0000 216.0000 0000000   0.0000  94.1538 13.76872657    12
CTC1_L_00486019-03
1 21079U 26102GC  26070.40837963  .00000000  00000+0  00000-0 0  9994
2 21079  55.0000 216.0000 0000000   0.0000 121.8462 13.76872657    17
CTC1_L_00486019-04
1 21080U 26623PU  26070.40837963  .00000000  00000+0  00000-0 0  9994
2 21080  55.0000 216.0000 0000000   0.0000 149.5385 13.76872657    10
CTC1_L_00486019-05
1 21081U 26279VH  26070.40837963  .00000000  00000+0  00000-0 0  9992
2 21081  55.0000 216.0000 0000000   0.0000 177.2308 13.76872657    14
CTC1_L_00486019-06
1 21082U 26705PG  26070.40837963  .00000000  00000+0  00000-0 0  9997
2 21082  55.0000 216.0000 0000000   0.0000 204.9231 13.76872657    18
CTC1_L_00486019-07
1 21083U 25092IP  26070.40837963  .00000000  00000+0  00000-0 0  9996
2 21083  55.0000 216.0000 0000000   0.0000 232.6154 13.76872657    11
CTC1_L_00486019-08
1 21084U 25270YT  26070.40837963  .00000000  00000+0  00000-0 0  9995
2 21084  55.0000 216.0000 0000000   0.0000 260.3077 13.76872657    14
CTC1_L_00486019-09
1 21085U 22843KP  26070.40837963  .00000000  00000+0  00000-0 0  9999
2 21085  55.0000 216.0000 0000000   0.0000 288.0000 13.76872657    18
CTC1_L_00486019-10
1 21086U 23360YT  26070.40837963  .00000000  00000+0  00000-0 0  9995
2 21086  55.0000 216.0000 0000000   0.0000 315.6923 13.76872657    10
CTC1_L_00486019-11
1 21087U 26614EP  26070.40837963  .00000000  00000+0  00000-0 0  9991
2 21087  55.0000 216.0000 0000000   0.0000 343.3846 13.76872657    13
CTC1_L_00486019-12
1 21088U 26893HJ  26070.40837963  .00000000  00000+0  00000-0 0  9991
2 21088  55.0000 216.0000 0000000   0.0000  11.0769 13.76872657    17
CTC1_L_00486019-13
1 21089U 26450UQ  26070.40837963  .00000000  00000+0  00000-0 0  9991
2 21089  55.0000 216.0000 0000000   0.0000  38.7692 13.76872657    19
CTC1_L_00486020-01
1 21090U 25581BF  26070.40837963  .00000000  00000+0  00000-0 0  9997
2 21090  55.0000 228.0000 0000000   0.0000  70.1538 13.76872657    13
